[{"OBJECT_NAME":"ATLAS CENTAUR 2","OBJECT_ID":"1963-047A","EPOCH":"2026-03-27T06:56:47.009472","MEAN_MOTION":14.12134786,"ECCENTRICITY":0.05474302,"INCLINATION":30.3568,"RA_OF_ASC_NODE":97.278,"ARG_OF_PERICENTER":235.4085,"MEAN_ANOMALY":119.3695,"EPHEMERIS_TYPE":0,"CLASSIFICATION_TYPE":"U","NORAD_CAT_ID":694,"ELEMENT_SET_NO":999,"REV_AT_EPOCH":13411,"BSTAR":0.0002376512,"MEAN_MOTION_DOT":2.064e-5,"MEAN_MOTION_DDOT":0},{"OBJECT_NAME":"THOR AGENA D R/B","OBJECT_ID":"1964-002A","EPOCH":"2026-03-27T07:32:39.667200","MEAN_MOTION":14.34029111,"ECCENTRICITY":0.0032494,"INCLINATION":99.1217,"RA_OF_ASC_NODE":100.6123,"ARG_OF_PERICENTER":205.5937,"MEAN_ANOMALY":154.3639,"EPHEMERIS_TYPE":0,"CLASSIFICATION_TYPE":"U","NORAD_CAT_ID":733,"ELEMENT_SET_NO":999,"REV_AT_EPOCH":24082,"BSTAR":8.3366947e-5,"MEAN_MOTION_DOT":1.85e-6,"MEAN_MOTION_DDOT":0},{"OBJECT_NAME":"SL-3 R/B","OBJECT_ID":"1964-053B","EPOCH":"2026-03-27T06:42:20.332800","MEAN_MOTION":14.61379761,"ECCENTRICITY":0.00803619,"INCLINATION":65.0755,"RA_OF_ASC_NODE":279.6662,"ARG_OF_PERICENTER":286.6935,"MEAN_ANOMALY":72.5356,"EPHEMERIS_TYPE":0,"CLASSIFICATION_TYPE":"U","NORAD_CAT_ID":877,"ELEMENT_SET_NO":999,"REV_AT_EPOCH":26936,"BSTAR":5.8140147e-5,"MEAN_MOTION_DOT":1.75e-6,"MEAN_MOTION_DDOT":0},{"OBJECT_NAME":"SL-8 R/B","OBJECT_ID":"1967-045B","EPOCH":"2026-03-27T01:59:36.093696","MEAN_MOTION":14.45636216,"ECCENTRICITY":0.00648192,"INCLINATION":74.0114,"RA_OF_ASC_NODE":315.6078,"ARG_OF_PERICENTER":318.0077,"MEAN_ANOMALY":41.6121,"EPHEMERIS_TYPE":0,"CLASSIFICATION_TYPE":"U","NORAD_CAT_ID":2802,"ELEMENT_SET_NO":999,"REV_AT_EPOCH":9153,"BSTAR":8.7336413e-5,"MEAN_MOTION_DOT":2.88e-6,"MEAN_MOTION_DDOT":0},{"OBJECT_NAME":"SL-8 R/B","OBJECT_ID":"1968-040B","EPOCH":"2026-03-27T06:40:53.772960","MEAN_MOTION":15.03370079,"ECCENTRICITY":0.00232636,"INCLINATION":74.0295,"RA_OF_ASC_NODE":277.7492,"ARG_OF_PERICENTER":94.5782,"MEAN_ANOMALY":265.8065,"EPHEMERIS_TYPE":0,"CLASSIFICATION_TYPE":"U","NORAD_CAT_ID":3230,"ELEMENT_SET_NO":999,"REV_AT_EPOCH":9265,"BSTAR":0.00026699204,"MEAN_MOTION_DOT":3.608e-5,"MEAN_MOTION_DDOT":0},{"OBJECT_NAME":"OAO 2","OBJECT_ID":"1968-110A","EPOCH":"2026-03-27T07:20:25.907424","MEAN_MOTION":14.47317361,"ECCENTRICITY":0.00058636,"INCLINATION":34.9925,"RA_OF_ASC_NODE":166.865,"ARG_OF_PERICENTER":333.7103,"MEAN_ANOMALY":26.3289,"EPHEMERIS_TYPE":0,"CLASSIFICATION_TYPE":"U","NORAD_CAT_ID":3597,"ELEMENT_SET_NO":999,"REV_AT_EPOCH":2165,"BSTAR":6.4507527e-5,"MEAN_MOTION_DOT":2.2e-6,"MEAN_MOTION_DDOT":0},{"OBJECT_NAME":"ISIS 1","OBJECT_ID":"1969-009A","EPOCH":"2026-03-27T05:50:01.788864","MEAN_MOTION":11.30418635,"ECCENTRICITY":0.17078657,"INCLINATION":88.4511,"RA_OF_ASC_NODE":153.3932,"ARG_OF_PERICENTER":53.7537,"MEAN_ANOMALY":320.952,"EPHEMERIS_TYPE":0,"CLASSIFICATION_TYPE":"U","NORAD_CAT_ID":3669,"ELEMENT_SET_NO":999,"REV_AT_EPOCH":35051,"BSTAR":6.1760693e-5,"MEAN_MOTION_DOT":1.07e-6,"MEAN_MOTION_DDOT":0},{"OBJECT_NAME":"SERT 2","OBJECT_ID":"1970-009A","EPOCH":"2026-03-27T07:25:24.915360","MEAN_MOTION":13.58731443,"ECCENTRICITY":0.00056034,"INCLINATION":99.278,"RA_OF_ASC_NODE":28.4408,"ARG_OF_PERICENTER":114.8718,"MEAN_ANOMALY":3.2949,"EPHEMERIS_TYPE":0,"CLASSIFICATION_TYPE":"U","NORAD_CAT_ID":4327,"ELEMENT_SET_NO":999,"REV_AT_EPOCH":78228,"BSTAR":6.194893e-5,"MEAN_MOTION_DOT":4.0e-8,"MEAN_MOTION_DDOT":0},{"OBJECT_NAME":"SL-3 R/B","OBJECT_ID":"1971-028B","EPOCH":"2026-03-27T06:35:04.113024","MEAN_MOTION":15.62663062,"ECCENTRICITY":0.00142226,"INCLINATION":81.2367,"RA_OF_ASC_NODE":30.2871,"ARG_OF_PERICENTER":212.0026,"MEAN_ANOMALY":148.0366,"EPHEMERIS_TYPE":0,"CLASSIFICATION_TYPE":"U","NORAD_CAT_ID":5118,"ELEMENT_SET_NO":999,"REV_AT_EPOCH":99141,"BSTAR":0.00047440719,"MEAN_MOTION_DOT":0.00042829,"MEAN_MOTION_DDOT":0},{"OBJECT_NAME":"ASTEX 1","OBJECT_ID":"1971-089A","EPOCH":"2026-03-27T04:53:02.757696","MEAN_MOTION":14.50787127,"ECCENTRICITY":0.00166112,"INCLINATION":92.7095,"RA_OF_ASC_NODE":157.4206,"ARG_OF_PERICENTER":33.1794,"MEAN_ANOMALY":327.0451,"EPHEMERIS_TYPE":0,"CLASSIFICATION_TYPE":"U","NORAD_CAT_ID":5560,"ELEMENT_SET_NO":999,"REV_AT_EPOCH":86484,"BSTAR":0.00010529713,"MEAN_MOTION_DOT":4.14e-6,"MEAN_MOTION_DDOT":0},{"OBJECT_NAME":"SL-8 R/B","OBJECT_ID":"1971-119B","EPOCH":"2026-03-27T06:11:46.954176","MEAN_MOTION":14.38199129,"ECCENTRICITY":0.0546608,"INCLINATION":73.8858,"RA_OF_ASC_NODE":142.8731,"ARG_OF_PERICENTER":105.7868,"MEAN_ANOMALY":260.424,"EPHEMERIS_TYPE":0,"CLASSIFICATION_TYPE":"U","NORAD_CAT_ID":5730,"ELEMENT_SET_NO":999,"REV_AT_EPOCH":65801,"BSTAR":0.00036907188,"MEAN_MOTION_DOT":7.042e-5,"MEAN_MOTION_DDOT":0},{"OBJECT_NAME":"OAO 3 (COPERNICUS)","OBJECT_ID":"1972-065A","EPOCH":"2026-03-27T07:18:43.634880","MEAN_MOTION":14.60011502,"ECCENTRICITY":0.00072288,"INCLINATION":35.0049,"RA_OF_ASC_NODE":196.9532,"ARG_OF_PERICENTER":302.3481,"MEAN_ANOMALY":83.5825,"EPHEMERIS_TYPE":0,"CLASSIFICATION_TYPE":"U","NORAD_CAT_ID":6153,"ELEMENT_SET_NO":999,"REV_AT_EPOCH":84877,"BSTAR":7.1021227e-5,"MEAN_MOTION_DOT":3.25e-6,"MEAN_MOTION_DDOT":0},{"OBJECT_NAME":"ATLAS CENTAUR R/B","OBJECT_ID":"1972-065B","EPOCH":"2026-03-26T07:33:00.192384","MEAN_MOTION":14.77732108,"ECCENTRICITY":0.0033165,"INCLINATION":35.0006,"RA_OF_ASC_NODE":208.3204,"ARG_OF_PERICENTER":151.0162,"MEAN_ANOMALY":209.2387,"EPHEMERIS_TYPE":0,"CLASSIFICATION_TYPE":"U","NORAD_CAT_ID":6155,"ELEMENT_SET_NO":999,"REV_AT_EPOCH":84372,"BSTAR":0.00018362,"MEAN_MOTION_DOT":1.327e-5,"MEAN_MOTION_DDOT":0},{"OBJECT_NAME":"SL-8 R/B","OBJECT_ID":"1975-112B","EPOCH":"2026-03-27T04:06:20.910240","MEAN_MOTION":14.3821364,"ECCENTRICITY":0.00145182,"INCLINATION":74.0631,"RA_OF_ASC_NODE":346.7572,"ARG_OF_PERICENTER":72.7313,"MEAN_ANOMALY":287.5429,"EPHEMERIS_TYPE":0,"CLASSIFICATION_TYPE":"U","NORAD_CAT_ID":8459,"ELEMENT_SET_NO":999,"REV_AT_EPOCH":63438,"BSTAR":8.1628828e-5,"MEAN_MOTION_DOT":2.22e-6,"MEAN_MOTION_DDOT":0},{"OBJECT_NAME":"SL-3 R/B","OBJECT_ID":"1977-057B","EPOCH":"2026-03-27T06:17:53.584800","MEAN_MOTION":15.45982187,"ECCENTRICITY":0.00066652,"INCLINATION":97.5797,"RA_OF_ASC_NODE":258.9657,"ARG_OF_PERICENTER":211.0186,"MEAN_ANOMALY":149.067,"EPHEMERIS_TYPE":0,"CLASSIFICATION_TYPE":"U","NORAD_CAT_ID":10114,"ELEMENT_SET_NO":999,"REV_AT_EPOCH":67104,"BSTAR":0.00027498571,"MEAN_MOTION_DOT":0.00013327,"MEAN_MOTION_DDOT":0},{"OBJECT_NAME":"SEASAT 1","OBJECT_ID":"1978-064A","EPOCH":"2026-03-27T04:53:55.715712","MEAN_MOTION":14.46174299,"ECCENTRICITY":0.00026211,"INCLINATION":108.0079,"RA_OF_ASC_NODE":162.2494,"ARG_OF_PERICENTER":277.1328,"MEAN_ANOMALY":82.952,"EPHEMERIS_TYPE":0,"CLASSIFICATION_TYPE":"U","NORAD_CAT_ID":10967,"ELEMENT_SET_NO":999,"REV_AT_EPOCH":50904,"BSTAR":0.00010980415,"MEAN_MOTION_DOT":2.55e-6,"MEAN_MOTION_DDOT":0},{"OBJECT_NAME":"SL-14 R/B","OBJECT_ID":"1979-011B","EPOCH":"2026-03-27T05:16:25.055616","MEAN_MOTION":14.91929817,"ECCENTRICITY":0.00161004,"INCLINATION":82.5208,"RA_OF_ASC_NODE":79.9309,"ARG_OF_PERICENTER":4.9727,"MEAN_ANOMALY":355.165,"EPHEMERIS_TYPE":0,"CLASSIFICATION_TYPE":"U","NORAD_CAT_ID":11267,"ELEMENT_SET_NO":999,"REV_AT_EPOCH":53139,"BSTAR":6.6680164e-5,"MEAN_MOTION_DOT":7.01e-6,"MEAN_MOTION_DDOT":0}]
